O3B FM17                
1 44114U 19020C   26063.57649119 -.00000027  00000+0  00000+0 0  9993
2 44114   0.0394 339.9840 0002689 358.2861  21.7121  5.00115444126294
O3B FM18                
1 44115U 19020D   26062.52332968 -.00000028  00000+0  00000+0 0  9990
2 44115   0.0519   0.0145 0002751 341.7220  18.2467  5.00115242126362
SES-17                  
1 49332U 21095A   26063.34003264 -.00000284  00000+0  00000+0 0  9990
2 49332   0.0238  64.0844 0001028 278.4956 234.8100  1.00269943 16801
SES-22                  
1 52933U 22071A   26063.49975577  .00000000  00000+0  00000+0 0  9992
2 52933   0.0189 167.7785 0001121 168.5129 226.8944  1.00267619  6474
SES-20                  
1 53960U 22123A   26063.35669706 -.00000113  00000+0  00000+0 0  9996
2 53960   0.0144 110.7976 0001366 302.1157 134.4833  1.00275989 12482
SES-21                  
1 53961U 22123B   26063.49419834  .00000058  00000+0  00000+0 0  9994
2 53961   0.0263  67.6102 0001271 272.8288 228.7176  1.00273824  6160
O3B MPOWER F1           
1 54755U 22174A   26058.53300325 -.00000026  00000+0  00000+0 0  9991
2 54755   0.0641 351.4493 0005158   3.4086 238.9684  5.00103025 59873
O3B MPOWER F2           
1 54756U 22174B   26062.53384886 -.00000028  00000+0  00000+0 0  9993
2 54756   0.1272 326.2177 0046125  76.0907 318.0389  5.00690325 60150
SES-18                  
1 55970U 23038A   26063.35669706 -.00000113  00000+0  00000+0 0  9995
2 55970   0.0601 273.2733 0002433  35.1180 239.0112  1.00272247 11052
SES-19                  
1 55971U 23038B   26063.49975577  .00000076  00000+0  00000+0 0  9994
2 55971   0.0531 288.4999 0001731  51.0844 227.6596  1.00272509 11039
O3B MPOWER F4           
1 56367U 23059A   26048.24074746 -.00000015  00000+0  00000+0 0  9995
2 56367   0.0593   7.9241 0006460 334.3658  17.6828  5.00119607 52601
O3B MPOWER F5           
1 58346U 23175A   26062.96606115 -.00000028  00000+0  00000+0 0  9993
2 58346   0.0397   2.5447 0004138 345.0636  12.3748  5.00115721 44164
ASTRA 1P (SES-24)       
1 60086U 24115A   26063.37128004  .00000108  00000+0  00000+0 0  9992
2 60086   0.0597 335.5167 0005274 347.3044 352.1506  1.00273834  6147
O3B MPOWER F7           
1 62362U 24244A   26063.53272743 -.00000027  00000+0  00000+0 0  9993
2 62362   0.0697   4.9543 0006132 337.5894  17.4287  5.00115206 21292
O3B MPOWER F8           
1 62363U 24244B   26062.90003898 -.00000028  00000+0  00000+0 0  9998
2 62363   0.0524 316.6662 0006643  18.2874  25.0073  5.00115767 15591
